$$SOE
2460147.500000000, A.D. 2023-Jul-22 00:00:00.0000, 3.535355252195101E+08, -1.343762910027797E+08, -1.488305260929351E+07,
2460154.500000000, A.D. 2023-Jul-29 00:00:00.0000, 3.577304563248703E+08, -1.233452261312647E+08, -1.452490892606211E+07,
2460161.500000000, A.D. 2023-Aug-05 00:00:00.0000, 3.616056020099826E+08, -1.122038102706556E+08, -1.415377947529919E+07,
2460168.500000000, A.D. 2023-Aug-12 00:00:00.0000, 3.651580112509316E+08, -1.009621603301805E+08, -1.377001608324134E+07,
2460175.500000000, A.D. 2023-Aug-19 00:00:00.0000, 3.683851058353240E+08, -8.963047157042503E+07, -1.337398360269466E+07,
2460182.500000000, A.D. 2023-Aug-26 00:00:00.0000, 3.712846820597814E+08, -7.821900084094562E+07, -1.296605924588951E+07,
2460189.500000000, A.D. 2023-Sep-02 00:00:00.0000, 3.738549114868221E+08, -6.673804992150941E+07, -1.254663189915443E+07,
2460196.500000000, A.D. 2023-Sep-09 00:00:00.0000, 3.760943408028434E+08, -5.519794907028688E+07, -1.211610142882339E+07,
2460203.500000000, A.D. 2023-Sep-16 00:00:00.0000, 3.780018909541614E+08, -4.360904089504313E+07, -1.167487800138644E+07,
2460210.500000000, A.D. 2023-Sep-23 00:00:00.0000, 3.795768559913930E+08, -3.198166431340952E+07, -1.122338143554503E+07,
2460217.500000000, A.D. 2023-Sep-30 00:00:00.0000, 3.808189013065665E+08, -2.032613745953096E+07, -1.076204046036684E+07,
2460224.500000000, A.D. 2023-Oct-07 00:00:00.0000, 3.817280589462224E+08, -8.652740129280658E+06, -1.029129171055138E+07,
2460231.500000000, A.D. 2023-Oct-14 00:00:00.0000, 3.823047210792192E+08, 3.028300869445638E+06, -9.811578827956975E+06,
2460238.500000000, A.D. 2023-Oct-21 00:00:00.0000, 3.825496348820084E+08, 1.470682501488430E+07, -9.323351837611809E+06,
2460245.500000000, A.D. 2023-Oct-28 00:00:00.0000, 3.824638974539955E+08, 2.637275223493528E+07, -8.827066485538654E+06,
2460252.500000000, A.D. 2023-Nov-04 00:00:00.0000, 3.820489495539576E+08, 3.801609712570529E+07, -8.323183489176626E+06,
2460259.500000000, A.D. 2023-Nov-11 00:00:00.0000, 3.813065683776004E+08, 4.962698258863553E+07, -7.812167768059017E+06,
2460266.500000000, A.D. 2023-Nov-18 00:00:00.0000, 3.802388596392688E+08, 6.119565278953965E+07, -7.294487682329305E+06,
2460273.500000000, A.D. 2023-Nov-25 00:00:00.0000, 3.788482490753291E+08, 7.271248543411885E+07, -6.770614285984121E+06,
2460280.500000000, A.D. 2023-Dec-02 00:00:00.0000, 3.771374734433658E+08, 8.416800332510427E+07, -6.241020600283027E+06,
2460287.500000000, A.D. 2023-Dec-09 00:00:00.0000, 3.751095711423084E+08, 9.555288512251523E+07, -5.706180921148673E+06,
2460294.500000000, A.D. 2023-Dec-16 00:00:00.0000, 3.727678727889850E+08, 1.068579753030575E+08, -5.166570187815249E+06,
2460301.500000000, A.D. 2023-Dec-23 00:00:00.0000, 3.701159921451005E+08, 1.180742939922141E+08, -4.622663390492857E+06,
2460308.500000000, A.D. 2023-Dec-30 00:00:00.0000, 3.671578160975450E+08, 1.291930477109927E+08, -4.074934809917264E+06,
2460315.500000000, A.D. 2024-Jan-06 00:00:00.0000, 3.638974919689469E+08, 1.402056386757016E+08, -3.523857120245770E+06,
2460322.500000000, A.D. 2024-Jan-13 00:00:00.0000, 3.603394153817583E+08, 1.511036708412144E+08, -2.969900795615919E+06,
2460329.500000000, A.D. 2024-Jan-20 00:00:00.0000, 3.564882199419149E+08, 1.618789557716384E+08, -2.413533682134345E+06,
2460336.500000000, A.D. 2024-Jan-27 00:00:00.0000, 3.523487667544609E+08, 1.725235189958859E+08, -1.855220496999808E+06,
2460343.500000000, A.D. 2024-Feb-03 00:00:00.0000, 3.479261333846747E+08, 1.830296059080619E+08, -1.295422293870628E+06,
2460350.500000000, A.D. 2024-Feb-10 00:00:00.0000, 3.432256025825568E+08, 1.933896869322387E+08, -7.345959444749653E+05,
2460357.500000000, A.D. 2024-Feb-17 00:00:00.0000, 3.382526509477531E+08, 2.035964619724781E+08, -1.731936491362751E+05,
2460364.500000000, A.D. 2024-Feb-24 00:00:00.0000, 3.330129376070600E+08, 2.136428641780845E+08, 3.883375212805718E+05,
2460371.500000000, A.D. 2024-Mar-02 00:00:00.0000, 3.275122929679765E+08, 2.235220630089389E+08, 9.495560464324504E+05,
2460378.500000000, A.D. 2024-Mar-09 00:00:00.0000, 3.217567077194554E+08, 2.332274665575293E+08, 1.510026322647855E+06,
2460385.500000000, A.D. 2024-Mar-16 00:00:00.0000, 3.157523225061168E+08, 2.427527233456105E+08, 2.069318954027489E+06,
2460392.500000000, A.D. 2024-Mar-23 00:00:00.0000, 3.095054181997685E+08, 2.520917247241775E+08, 2.627011068528503E+06,
2460399.500000000, A.D. 2024-Mar-30 00:00:00.0000, 3.030224045480386E+08, 2.612386078714458E+08, 3.182686862758383E+06,
2460406.500000000, A.D. 2024-Apr-06 00:00:00.0000, 2.963098074792049E+08, 2.701877560496683E+08, 3.735938077730298E+06,
2460413.500000000, A.D. 2024-Apr-13 00:00:00.0000, 2.893742586399788E+08, 2.789337969833087E+08, 4.286364148580909E+06,
2460420.500000000, A.D. 2024-Apr-20 00:00:00.0000, 2.822224862323821E+08, 2.874716020580773E+08, 4.833572334618062E+06,
2460427.500000000, A.D. 2024-Apr-27 00:00:00.0000, 2.748613056478630E+08, 2.957962858049445E+08, 5.377177923710138E+06,
2460434.500000000, A.D. 2024-May-04 00:00:00.0000, 2.672976100016323E+08, 3.039032049923871E+08, 5.916804446315512E+06,
2460441.500000000, A.D. 2024-May-11 00:00:00.0000, 2.595383608193976E+08, 3.117879572509307E+08, 6.452083869775504E+06,
2460448.500000000, A.D. 2024-May-18 00:00:00.0000, 2.515905789700745E+08, 3.194463792759633E+08, 6.982656767862380E+06,
2460455.500000000, A.D. 2024-May-25 00:00:00.0000, 2.434613358776419E+08, 3.268745446244971E+08, 7.508172463423461E+06,
2460462.500000000, A.D. 2024-Jun-01 00:00:00.0000, 2.351577450767672E+08, 3.340687610708967E+08, 8.028289134697825E+06,
2460469.500000000, A.D. 2024-Jun-08 00:00:00.0000, 2.266869543607536E+08, 3.410255675229452E+08, 8.542673861839175E+06,
2460476.500000000, A.D. 2024-Jun-15 00:00:00.0000, 2.180561389239560E+08, 3.477417310702920E+08, 9.051002622788727E+06,
2460483.500000000, A.D. 2024-Jun-22 00:00:00.0000, 2.092724944974070E+08, 3.542142453658417E+08, 9.552960427889377E+06,
2460490.500000000, A.D. 2024-Jun-29 00:00:00.0000, 2.003432283566184E+08, 3.604403285416252E+08, 1.004824164038989E+07,
2460497.500000000, A.D. 2024-Jul-06 00:00:00.0000, 1.912755508475475E+08, 3.664174182143850E+08, 1.053655003992410E+07,
2460504.500000000, A.D. 2024-Jul-13 00:00:00.0000, 1.820766693842492E+08, 3.721431664281405E+08, 1.101759868179335E+07,
2460511.500000000, A.D. 2024-Jul-20 00:00:00.0000, 1.727537829317042E+08, 3.776154356990374E+08, 1.149110982859486E+07,
2460518.500000000, A.D. 2024-Jul-27 00:00:00.0000, 1.633140763133792E+08, 3.828322952198430E+08, 1.195681493671727E+07,
2460525.500000000, A.D. 2024-Aug-03 00:00:00.0000, 1.537647146115378E+08, 3.877920168666142E+08, 1.241445464278421E+07,
2460532.500000000, A.D. 2024-Aug-10 00:00:00.0000, 1.441128378207411E+08, 3.924930710200553E+08, 1.286377873515344E+07,
2460539.500000000, A.D. 2024-Aug-17 00:00:00.0000, 1.343655557959225E+08, 3.969341222394699E+08, 1.330454610853073E+07,
2460546.500000000, A.D. 2024-Aug-24 00:00:00.0000, 1.245299435162909E+08, 4.011140247823713E+08, 1.373652469790906E+07,
2460553.500000000, A.D. 2024-Aug-31 00:00:00.0000, 1.146130367734453E+08, 4.050318179227743E+08, 1.415949137678415E+07,
2460560.500000000, A.D. 2024-Sep-07 00:00:00.0000, 1.046218286414047E+08, 4.086867212086498E+08, 1.457323179704243E+07,
2460567.500000000, A.D. 2024-Sep-14 00:00:00.0000, 9.456326680636568E+07, 4.120781306684723E+08, 1.497754024463207E+07,
2460574.500000000, A.D. 2024-Sep-21 00:00:00.0000, 8.444424972075288E+07, 4.152056163903525E+08, 1.537221973113361E+07,
2460581.500000000, A.D. 2024-Sep-28 00:00:00.0000, 7.427162108387251E+07, 4.180689182528821E+08, 1.575708210272112E+07,
2460588.500000000, A.D. 2024-Oct-05 00:00:00.0000, 6.405216630714113E+07, 4.206679398214504E+08, 1.613194783104390E+07,
2460595.500000000, A.D. 2024-Oct-12 00:00:00.0000, 5.379261059593175E+07, 4.230027434027189E+08, 1.649664576319030E+07,
2460602.500000000, A.D. 2024-Oct-19 00:00:00.0000, 4.349961688892295E+07, 4.250735459937229E+08, 1.685101296963733E+07,
2460609.500000000, A.D. 2024-Oct-26 00:00:00.0000, 3.317978361261893E+07, 4.268807153309836E+08, 1.719489462830237E+07,
2460616.500000000, A.D. 2024-Nov-02 00:00:00.0000, 2.283964249853235E+07, 4.284247658984786E+08, 1.752814390963793E+07,
2460623.500000000, A.D. 2024-Nov-09 00:00:00.0000, 1.248565655008765E+07, 4.297063549220507E+08, 1.785062185624796E+07,
2460630.500000000, A.D. 2024-Nov-16 00:00:00.0000, 2.124218175771939E+06, 4.307262783567837E+08, 1.816219725529963E+07,
2460637.500000000, A.D. 2024-Nov-23 00:00:00.0000, -8.238352473800335E+06, 4.314854668230594E+08, 1.846274649596429E+07,
2460644.500000000, A.D. 2024-Nov-30 00:00:00.0000, -1.859580876582751E+07, 4.319849814536494E+08, 1.875215338991356E+07,
2460651.500000000, A.D. 2024-Dec-07 00:00:00.0000, -2.894197803206661E+07, 4.322260100773001E+08, 1.903030895139784E+07,
2460658.500000000, A.D. 2024-Dec-14 00:00:00.0000, -3.927076189950719E+07, 4.322098649681175E+08, 1.929711130063936E+07,
2460665.500000000, A.D. 2024-Dec-21 00:00:00.0000, -4.957613882994091E+07, 4.319379809227709E+08, 1.955246580211532E+07,
2460672.500000000, A.D. 2024-Dec-28 00:00:00.0000, -5.985216690431689E+07, 4.314119106962782E+08, 1.979628501475951E+07,
2460679.500000000, A.D. 2025-Jan-04 00:00:00.0000, -7.009298426589857E+07, 4.306333201750394E+08, 2.002848841074988E+07,
2460686.500000000, A.D. 2025-Jan-11 00:00:00.0000, -8.029280905145387E+07, 4.296039849515273E+08, 2.024900216596806E+07,
2460693.500000000, A.D. 2025-Jan-18 00:00:00.0000, -9.044593973446839E+07, 4.283257873829753E+08, 2.045775903149337E+07,
2460700.500000000, A.D. 2025-Jan-25 00:00:00.0000, -1.005467556444959E+08, 4.268007136602011E+08, 2.065469822548580E+07,
2460707.500000000, A.D. 2025-Feb-01 00:00:00.0000, -1.105897174799868E+08, 4.250308508572194E+08, 2.083976532607347E+07,
2460714.500000000, A.D. 2025-Feb-08 00:00:00.0000, -1.205693677622671E+08, 4.230183839810220E+08, 2.101291216186771E+07,
$$EOE